#cP2018  5 13  0  0  0.00000000      96 ORBIT IGS14 HLM  IGS
## 2001      0.00000000   900.00000000 58251 0.0000000000000
+   32   G01G02G03G04G05G06G07G08G09G10G11G12G13G14G15G16G17
+        G18G19G20G21G22G23G24G25G26G27G28G29G30G31G32  0  0
+          0  0  0  0  0  0  0  0  0  0  0  0  0  0  0  0  0
+          0  0  0  0  0  0  0  0  0  0  0  0  0  0  0  0  0
+          0  0  0  0  0  0  0  0  0  0  0  0  0  0  0  0  0
++         2  2  2  0  2  2  2  2  2  2  2  2  2  2  2  3  2
++         2  2  2  2  2  2  2  2  2  2  2  2  2  2  2  0  0
++         0  0  0  0  0  0  0  0  0  0  0  0  0  0  0  0  0
++         0  0  0  0  0  0  0  0  0  0  0  0  0  0  0  0  0
++         0  0  0  0  0  0  0  0  0  0  0  0  0  0  0  0  0
%c G  cc GPS ccc cccc cccc cccc cccc ccccc ccccc ccccc ccccc
%c cc cc ccc ccc cccc cccc cccc cccc ccccc ccccc ccccc ccccc
%f  1.2500000  1.025000000  0.00000000000  0.000000000000000
%f  0.0000000  0.000000000  0.00000000000  0.000000000000000
%i    0    0    0    0      0      0      0      0         0
%i    0    0    0    0      0      0      0      0         0
/* FINAL ORBIT COMBINATION FROM WEIGHTED AVERAGE OF:        
/* cod emr esa gfz grg jpl mit ngs sio                      
/* REFERENCED TO IGS TIME (IGST) AND TO WEIGHTED MEAN POLE: 
/* PCV:IGS14_2000 OL/AL:FES2004  NONE     Y  ORB:CMB CLK:CMB
*  2018  5 13  0 45  0.00000000
PG01  22299.735900  14091.249534  -4427.878931    -47.393539  7  6  6 109       
PG02  -3622.758883 -17283.939371  20468.466600    117.228180  6  6  7 100       
PG03  12930.952693  16226.800576  16598.026558     69.220755  5  7  6  74       
PG04  -8838.079204  19972.048783  14657.876686 999999.999999
PG05  -2154.028497 -26344.609031    706.329930     -8.055444  9  3  6  74       
PG06  11422.515142 -10826.849023  21432.248206    403.770285  5  6     90       
PG07  24316.657177   4056.850495 -10248.375194    192.781765  8  7  7 111       
PG08   8283.577168  12514.193870 -21862.343407   -101.038912  8  7 10  94       
PG09  22798.641270  -5186.582626  12582.333100    513.619798  6  5  6 108       
PG10 -11531.225481  15342.704881 -18247.636768    184.482966  6  8  7 132       
PG11  20847.365454  10647.593094 -12962.133544   -736.365289 10  7  8  99       
PG12 -10032.773949 -19703.791622  14667.687671    334.085062  7  9  8 101       
PG13   1995.977367 -16940.365367 -20469.790496    -94.500678  8  7  5  97       
PG14 -14681.386570  18469.604120  12313.618066    -96.839318  8  4  5  87       
PG15 -10848.766674 -11802.437341 -21397.744665   -354.299457  8  6  7  62       
PG16   -604.942169  26302.197181    829.820454     24.990228  7  9  5  62       
PG17  20794.981072 -16003.017551   4029.795313    -98.578804  7  7  7  85       
PG18  16659.472723  16878.300422 -12600.890032      8.324856  8  8  9  84       
PG19  17273.709167 -17381.701723  10181.867400   -436.800888  5  5  4  89       
PG20 -16460.720927  -3526.148052 -20704.005144    508.031671  8  7  6 116       
PG21 -23182.398955   -120.931525 -12147.525440   -395.825253 10  6  5 108       
PG22  10521.187001  22483.063233   9709.664402   -389.628086  7  5  6  62       
PG23  16398.396369   6385.391609  20295.398862   -217.134808  7  7  6  98       
PG24 -20683.618340 -15010.145958  -7872.215514    -49.667172  8  9 10 103       
PG25 -14841.008543  -5649.057753  21148.891034   -584.155543  7  7  6 103       
PG26  -5729.091672  23270.075251  11293.419641   -151.303882  7  3  5  95       
PG27  -5108.177810  18548.336929 -18270.001611    369.183253  4  4  7  82       
PG28  12864.859074 -11981.997916 -19305.210439    714.664909  8  9  6 100       
PG29 -21879.113323   1602.189120  14939.901455    450.973038 11  7  8 113       
PG30  19610.801930  -3854.433981 -17567.534066     74.793526  9  7  7  79       
PG31 -10430.134372  11527.528948  21612.363796    122.075562  6  5  3  68       
PG32 -20626.432759  16493.681580   2378.188166   -510.202454  7  6  7  95       
*  2018  5 13  1  0  0.00000000
PG01  21634.831148  14009.436095  -7184.525793    -47.396085  7  6  6  94       
PG02  -1465.272975 -16556.590209  21321.912414    117.217960  6  6  6 102       
PG03  12956.413174  18021.915723  14614.811239     69.227358  5  7  6  76       
PG04  -9157.434602  18150.650284  16683.024029 999999.999999
PG05  -1813.595767 -26132.722757   3533.692852     -8.055167  8  1  6  67       
PG06  13598.505203  -9820.821519  20632.838709    403.768195  5  6     79       
PG07  25175.957100   4680.045828  -7674.792481    192.776484  8  7  7  87       
PG08   6278.287847  14001.576098 -21614.076438   -101.041195  7  7 10  94       
PG09  21676.359393  -4066.066696  14779.340268    513.620378  5  5  6 117       
PG10 -11914.586088  13191.338204 -19641.171990    184.484592  6  8  7 126       
PG11  19311.159111  10965.714315 -15017.332751   -736.364665  9  7  8  72       
PG12  -9973.830136 -21274.230820  12381.486619    334.083026  7  9  9  84       
PG13   3997.988646 -17969.613031 -19256.824310    -94.500574  7  7  5 112       
PG14 -15845.958785  18934.439882   9843.783125    -96.839394  8  4  5  85       
PG15  -9017.249982 -13370.180902 -21289.972268   -354.299059  7  5  6  87       
PG16   -826.001358  26027.114648   3746.405173     24.989267  7  8  6  66       
PG17  21115.887657 -15978.395001   1142.883093    -98.575661  7  7  7  74       
PG18  15191.987211  16525.876103 -14794.498099      8.328965  7  7  8  74       
PG19  18259.860018 -17767.361348   7543.300834   -436.798345  5  5  4  70       
PG20 -16866.543795  -5794.293950 -19850.475119    508.032927  7  6  6 113       
PG21 -24359.027417   -867.006642  -9730.504922   -395.820544 10  6  6 111       
PG22  10363.095772  23464.747944   7157.407878   -389.639772  7  5  6  85       
PG23  14601.924603   7835.954910  21115.348501   -217.134371  7  7  6 100       
PG24 -19633.903569 -14879.584222 -10408.344043    -49.667875  7  8 10 114       
PG25 -15040.731903  -8038.803276  20243.320644   -584.160866  7  7  6  90       
PG26  -6144.043609  21879.345146  13625.174120   -151.292377  7  3  4  92       
PG27  -6779.734558  19620.340719 -16490.686770    369.182484  4  4  7  78       
PG28  13012.201052  -9590.782197 -20466.584135    714.667908  8  9  7 102       
PG29 -20420.690854    498.886913  16946.095042    450.966968 11  6  8  86       
PG30  21237.762671  -2840.879773 -15794.006340     74.789664  9  7  7  92       
PG31 -12608.082862  10460.971990  21021.323696    122.073200  6  5  3  83       
PG32 -20873.676546  16339.913488   -473.328107   -510.198030  6  6  6  94       
*  2018  5 13  1 15  0.00000000
PG01  20683.007363  13858.016694  -9820.228470    -47.398701  6  6  5  91       
PG02    799.450475 -15920.611846  21827.414082    117.207855  7  6  5 102       
PG03  13034.981023  19577.732194  12380.509526     69.233975  5  7  6  91       
PG04  -9605.808705  16135.673047  18412.458174 999999.999999
PG05  -1402.019490 -25625.821810   6299.345729     -8.054595  8  1  6  64       
PG06  15721.508692  -8970.982050  19479.625859    403.766098  5  6     83       
PG07  25789.738854   5147.478279  -4971.623408    192.770849  8  7  7  97       
PG08   4391.542469  15562.323544 -20991.675293   -101.042349  6  6  9  92       
PG09  20434.313271  -2737.504254  16721.667337    513.621051  5  5  6 120       
PG10 -12432.540739  10926.889749 -20694.065098    184.486260  6  8  6 124       
PG11  17581.340599  11361.930373 -16821.212568   -736.364250  7  6  7  71       
PG12  -9974.495822 -22573.403388   9882.145814    334.080994  7  8  9  81       
PG13   5812.244881 -19020.177327 -17715.474932    -94.500220  8  7  5  96       
PG14 -16752.236844  19291.305677   7204.939002    -96.839752  8  4  4  88       
PG15  -7282.138496 -15003.298205 -20821.914918   -354.298719  6  4  6  64       
PG16  -1092.985939  25434.586289   6596.632707     24.988375  7  8  6  61       
PG17  21176.724450 -15770.539532  -1763.784912    -98.572427  7  7  6  82       
PG18  13491.397255  16178.179290 -16742.597143      8.333073  7  7  8  91       
PG19  18967.371116 -18034.954082   4775.026790   -436.795732  5  5  2  93       
PG20 -17347.873744  -7930.624560 -18660.129604    508.033522  7  6  6 114       
PG21 -25293.628304  -1462.625001  -7139.856838   -395.816042 10  7  6  99       
PG22  10183.206597  24168.443659   4482.962428   -389.651649  6  5  5  62       
PG23  12824.269755   9424.310152  21583.242559   -217.134181  7  7  5 103       
PG24 -18317.988019 -14717.342526 -12768.991279    -49.666879  6  7  9 117       
PG25 -15348.382534 -10289.890438  18985.830973   -584.166205  7  7  6  83       
PG26  -6676.296505  20265.305071  15720.774718   -151.280863  7  3  4  90       
PG27  -8225.402576  20641.711687 -14426.039178    369.181740  3  4  6  88       
PG28  13299.963622  -7094.958320 -21256.041391    714.670744  8  9  7  90       
PG29 -18856.026670   -809.567304  18660.037113    450.961157 10  5  7  89       
PG30  22714.792309  -1994.922330 -13750.462223     74.785841  9  6  7 101       
PG31 -14755.583552   9545.305361  20072.251059    122.071067  7  5  3  77       
PG32 -20882.173515  15990.159382  -3316.649037   -510.193575  6  6  6 104       
EOF
